{"_default": { "12": {"norad_id": "43111", "name": "CARTOSAT 2F", "tle1": "1 43111U 18004A   26199.29658581  .00002832  00000-0  13788-3 0  9999", "tle2": "2 43111  97.4767 258.6248 0002467 128.7889 231.3566 15.19188667472055", "object_type": "PAYLOAD", "criticality_score": 9.0, "last_updated": "2026-07-18T17:04:38.830881+00:00", "maneuver_count": 0, "owner": "N/A"}, "44": {"norad_id": "42847", "name": "CORVUS BC1", "tle1": "1 42847U 17042Y   26199.00764256  .00001615  00000-0  11286-3 0  9990", "tle2": "2 42847  97.4125   0.0017 0011353 350.0028  10.0972 15.06628310491739", "object_type": "PAYLOAD", "criticality_score": 9.0, "last_updated": "2026-07-18T17:04:38.830881+00:00", "maneuver_count": 0, "owner": "N/A"}, "45": {"norad_id": "42828", "name": "NORSAT 2", "tle1": "1 42828U 17042D   26199.05500871  .00005202  00000-0  22765-3 0  9995", "tle2": "2 42828  97.4061  12.0206 0008066 306.5315  53.5178 15.22458459492433", "object_type": "PAYLOAD", "criticality_score": 9.0, "last_updated": "2026-07-18T17:04:38.830881+00:00", "maneuver_count": 0, "owner": "N/A"}, "46": {"norad_id": "42767", "name": "CARTOSAT 2E", "tle1": "1 42767U 17036C   26199.32975088  .00001819  00000-0  89480-4 0  9994", "tle2": "2 42767  97.4255 258.6159 0003570 176.1631 183.9632 15.19267347502875", "object_type": "PAYLOAD", "criticality_score": 9.0, "last_updated": "2026-07-18T17:04:38.830881+00:00", "maneuver_count": 0, "owner": "N/A"}, "80": {"norad_id": "43017", "name": "AO-91", "tle1": "1 43017U 17073E   26199.09505955  .00003698  00000-0  16274-3 0  9997", "tle2": "2 43017  97.4663  65.6800 0148345 221.3591 137.6333 15.13085241470068", "object_type": "PAYLOAD", "criticality_score": 9.0, "last_updated": "2026-07-18T17:04:38.830881+00:00", "maneuver_count": 0, "owner": "N/A"}, "81": {"norad_id": "43012", "name": "CZ-4C R/B", "tle1": "1 43012U 17072C   26199.31799783  .00000135  00000-0  36802-4 0  9993", "tle2": "2 43012  98.5815 308.3392 0123309  56.3823 304.9071 14.58810566461178", "object_type": "ROCKET_BODY", "criticality_score": 9.0, "last_updated": "2026-07-18T17:04:38.830881+00:00", "maneuver_count": 0, "owner": "N/A"}, "82": {"norad_id": "42829", "name": "TECHNOSAT", "tle1": "1 42829U 17042E   26199.16474853  .00001358  00000-0  99292-4 0  9996", "tle2": "2 42829  97.4322 355.6525 0017144 353.8283   6.2730 15.05120470491360", "object_type": "PAYLOAD", "criticality_score": 9.0, "last_updated": "2026-07-18T17:04:38.830881+00:00", "maneuver_count": 0, "owner": "N/A"}, "83": {"norad_id": "42794", "name": "DSAT", "tle1": "1 42794U 17036AF  26198.89700484  .00005029  00000-0  23358-3 0  9999", "tle2": "2 42794  97.5580 177.7378 0082631  56.1524 304.7538 15.17422206495519", "object_type": "PAYLOAD", "criticality_score": 9.0, "last_updated": "2026-07-18T17:04:38.830881+00:00", "maneuver_count": 0, "owner": "N/A"}, "107": {"norad_id": "42831", "name": "FLYING LAPTOP", "tle1": "1 42831U 17042G   26199.31260757  .00001709  00000-0  13679-3 0  9996", "tle2": "2 42831  97.4823 353.6768 0019542  22.5475 337.6604 15.01324411491125", "object_type": "PAYLOAD", "criticality_score": 9.0, "last_updated": "2026-07-18T17:04:38.830881+00:00", "maneuver_count": 0, "owner": "N/A"}, "108": {"norad_id": "41948", "name": "CARTOSAT 2D", "tle1": "1 41948U 17008A   26199.31192406  .00002488  00000-0  12105-3 0  9999", "tle2": "2 41948  97.4083 258.0337 0006211 130.3335 229.8443 15.19297730522303", "object_type": "PAYLOAD", "criticality_score": 9.0, "last_updated": "2026-07-18T17:04:38.830881+00:00", "maneuver_count": 0, "owner": "N/A"}, "150": {"norad_id": "42846", "name": "CORVUS BC2", "tle1": "1 42846U 17042X   26198.94999599  .00001166  00000-0  82916-4 0  9991", "tle2": "2 42846  97.4093 359.1122 0013171  13.7355 346.4228 15.06463717491696", "object_type": "PAYLOAD", "criticality_score": 9.0, "last_updated": "2026-07-18T17:04:38.830881+00:00", "maneuver_count": 0, "owner": "N/A"}, "180": {"norad_id": "43016", "name": "MAKERSAT 0", "tle1": "1 43016U 17073D   26198.93211796  .00011173  00000-0  29470-3 0  9994", "tle2": "2 43016  97.4572  81.7042 0105584 162.5490 197.9426 15.33071683471177", "object_type": "PAYLOAD", "criticality_score": 9.0, "last_updated": "2026-07-18T17:04:38.830881+00:00", "maneuver_count": 0, "owner": "N/A"}, "189": {"norad_id": "41914", "name": "JILIN-1-03", "tle1": "1 41914U 17002B   26199.30551849  .00007380  00000-0  17334-3 0  9990", "tle2": "2 41914  97.1953 205.9673 0007724  71.0610 289.1475 15.42279597526653", "object_type": "PAYLOAD", "criticality_score": 9.0, "last_updated": "2026-07-18T17:04:38.830881+00:00", "maneuver_count": 0, "owner": "N/A"}, "191": {"norad_id": "43022", "name": "JILIN-01-04", "tle1": "1 43022U 17074A   26199.28288632  .00007628  00000-0  17402-3 0  9996", "tle2": "2 43022  97.4879 309.7449 0005222  92.5264 267.6582 15.43182433479068", "object_type": "PAYLOAD", "criticality_score": 9.0, "last_updated": "2026-07-18T17:04:38.830881+00:00", "maneuver_count": 0, "owner": "N/A"}, "192": {"norad_id": "43023", "name": "JILIN-01-05", "tle1": "1 43023U 17074B   26199.29944992  .00004268  00000-0  13088-3 0  9999", "tle2": "2 43023  97.4882 305.8871 0006559 116.1485 244.0433 15.34313405478777", "object_type": "PAYLOAD", "criticality_score": 9.0, "last_updated": "2026-07-18T17:04:38.830881+00:00", "maneuver_count": 0, "owner": "N/A"}, "193": {"norad_id": "43024", "name": "JILIN-01-06", "tle1": "1 43024U 17074C   26199.27594791  .00003408  00000-0  10596-3 0  9992", "tle2": "2 43024  97.4807 302.8307 0008254 125.0017 235.2001 15.34017226478607", "object_type": "PAYLOAD", "criticality_score": 9.0, "last_updated": "2026-07-18T17:04:38.830881+00:00", "maneuver_count": 0, "owner": "N/A"}, "217": {"norad_id": "43010", "name": "FENGYUN 3D", "tle1": "1 43010U 17072A   26199.22667470 -.00000001  00000-0  21463-4 0  9998", "tle2": "2 43010  99.0149 174.2134 0001407   8.2002 351.9197 14.19744597449393", "object_type": "PAYLOAD", "criticality_score": 9.0, "last_updated": "2026-07-18T17:04:38.830881+00:00", "maneuver_count": 0, "owner": "N/A"}, "221": {"norad_id": "43013", "name": "NOAA 20", "tle1": "1 43013U 17073A   26199.29722826  .00000021  00000-0  30686-4 0  9994", "tle2": "2 43013  98.7772 138.4844 0001504 121.0882 239.0442 14.19516792448888", "object_type": "PAYLOAD", "criticality_score": 9.0, "last_updated": "2026-07-18T17:04:38.830881+00:00", "maneuver_count": 0, "owner": "N/A"}, "232": {"norad_id": "42840", "name": "LEMUR 2 FURIAUS", "tle1": "1 42840U 17042R   26199.06594683  .00009635  00000-0  32217-3 0  9991", "tle2": "2 42840  97.3783  17.4560 0005737 317.1429  42.9364 15.31188015492937", "object_type": "PAYLOAD", "criticality_score": 9.0, "last_updated": "2026-07-18T17:04:38.830881+00:00", "maneuver_count": 0, "owner": "N/A"}, "239": {"norad_id": "42835", "name": "WNISAT 1R", "tle1": "1 42835U 17042L   26199.00715179  .00000330  00000-0  29677-4 0  9994", "tle2": "2 42835  97.4818 354.0283 0010488  55.8516 304.3703 15.01861016491134", "object_type": "PAYLOAD", "criticality_score": 9.0, "last_updated": "2026-07-18T17:04:38.830881+00:00", "maneuver_count": 0, "owner": "N/A"}, "293": {"norad_id": "43005", "name": "MOHAMMED VI-A", "tle1": "1 43005U 17070A   26199.30441005  .00000490  00000-0  76518-4 0  9995", "tle2": "2 43005  97.9546 271.2052 0001235  99.5866 260.5484 14.77105334468571", "object_type": "PAYLOAD", "criticality_score": 9.0, "last_updated": "2026-07-18T17:04:38.830881+00:00", "maneuver_count": 0, "owner": "N/A"}, "348": {"norad_id": "43072", "name": "IRIDIUM 116", "tle1": "1 43072U 17083C   26199.26198081  .00000126  00000-0  37861-4 0  9995", "tle2": "2 43072  86.3985 309.0114 0002520  99.1907 260.9574 14.34217003448621", "object_type": "PAYLOAD", "criticality_score": 9.0, "last_updated": "2026-07-18T17:04:38.830881+00:00", "maneuver_count": 0, "owner": "N/A"}, "349": {"norad_id": "42803", "name": "IRIDIUM 113", "tle1": "1 42803U 17039A   26199.00827740  .00000072  00000-0  18530-4 0  9992", "tle2": "2 42803  86.3992 309.2974 0002140  92.8210 267.3231 14.34217681475602", "object_type": "PAYLOAD", "criticality_score": 9.0, "last_updated": "2026-07-18T17:04:38.830881+00:00", "maneuver_count": 0, "owner": "N/A"}, "350": {"norad_id": "43073", "name": "IRIDIUM 130", "tle1": "1 43073U 17083D   26199.30003826  .00000142  00000-0  43632-4 0  9994", "tle2": "2 43073  86.3994 309.2742 0002325 100.4244 259.7214 14.34218687448574", "object_type": "PAYLOAD", "criticality_score": 9.0, "last_updated": "2026-07-18T17:04:38.830881+00:00", "maneuver_count": 0, "owner": "N/A"}, "417": {"norad_id": "43152", "name": "ASNARO-2", "tle1": "1 43152U 18007A   26199.27515821  .00004388  00000-0  19287-3 0  9992", "tle2": "2 43152  97.3976 205.7170 0001739  91.3495 268.7940 15.22415560472146", "object_type": "PAYLOAD", "criticality_score": 9.0, "last_updated": "2026-07-18T17:04:38.830881+00:00", "maneuver_count": 0, "owner": "N/A"}, "419": {"norad_id": "43099", "name": "SUPERVIEW-1 03", "tle1": "1 43099U 18002A   26199.29400528  .00010094  00000-0  24325-3 0  9996", "tle2": "2 43099  97.3124 284.1049 0046707  70.2661 290.3615 15.40282297473153", "object_type": "PAYLOAD", "criticality_score": 9.0, "last_updated": "2026-07-18T17:04:38.830881+00:00", "maneuver_count": 0, "owner": "N/A"}, "437": {"norad_id": "42837", "name": "LEMUR 2 GREENBERG", "tle1": "1 42837U 17042N   26199.05111860  .00009701  00000-0  31416-3 0  9992", "tle2": "2 42837  97.3835  19.5561 0007323 247.3182 112.7286 15.32207983493115", "object_type": "PAYLOAD", "criticality_score": 9.0, "last_updated": "2026-07-18T17:04:38.830881+00:00", "maneuver_count": 0, "owner": "N/A"}, "499": {"norad_id": "43146", "name": "LKW-3", "tle1": "1 43146U 18006A   26199.26830368  .00005319  00000-0  15528-3 0  9998", "tle2": "2 43146  97.6645   1.0737 0003212 168.5053 191.6264 15.35785026473488", "object_type": "PAYLOAD", "criticality_score": 9.0, "last_updated": "2026-07-18T17:04:38.830881+00:00", "maneuver_count": 0, "owner": "N/A"}, "506": {"norad_id": "43080", "name": "LKW-2", "tle1": "1 43080U 17084A   26199.29588046  .00001745  00000-0  69040-4 0  9994", "tle2": "2 43080  97.1172 237.6427 0003736 114.3331 245.8299 15.26711363476438", "object_type": "PAYLOAD", "criticality_score": 9.0, "last_updated": "2026-07-18T17:04:38.830881+00:00", "maneuver_count": 0, "owner": "N/A"}, "527": {"norad_id": "42954", "name": "VRSS-2", "tle1": "1 42954U 17060A   26199.32917814  .00000644  00000-0  88848-4 0  9994", "tle2": "2 42954  97.6493 235.6518 0017153   3.6324 356.5010 14.81240955473068", "object_type": "PAYLOAD", "criticality_score": 9.0, "last_updated": "2026-07-18T17:04:38.830881+00:00", "maneuver_count": 0, "owner": "N/A"}}}