OBJECT_NAME,OBJECT_ID,EPOCH,MEAN_MOTION,ECCENTRICITY,INCLINATION,RA_OF_ASC_NODE,ARG_OF_PERICENTER,MEAN_ANOMALY,EPHEMERIS_TYPE,CLASSIFICATION_TYPE,NORAD_CAT_ID,ELEMENT_SET_NO,REV_AT_EPOCH,BSTAR,MEAN_MOTION_DOT,MEAN_MOTION_DDOT
JILIN-1 03,2017-002B,2026-07-18T07:19:56.797536,15.42279597,.00077237,97.1953,205.9673,71.0610,289.1475,0,U,41914,999,52665,.17334021E-3,.738E-4,0
CARTOSAT-2D,2017-008A,2026-07-18T07:29:10.238784,15.19297730,.00062109,97.4083,258.0337,130.3335,229.8443,0,U,41948,999,52230,.12105405E-3,.2488E-4,0
CARTOSAT-2E,2017-036C,2026-07-18T07:54:50.476032,15.19267347,.000357,97.4255,258.6159,176.1631,183.9632,0,U,42767,999,50287,.89479512E-4,.1819E-4,0
D-SAT,2017-036AF,2026-07-17T21:31:41.218176,15.17422206,.00826314,97.5580,177.7378,56.1524,304.7538,0,U,42794,999,49551,.23358113E-3,.5029E-4,0
IRIDIUM 113,2017-039A,2026-07-18T00:11:55.167360,14.34217681,.00021399,86.3992,309.2974,92.8210,267.3231,0,U,42803,999,47560,.18530058E-4,.72E-6,0
NORSAT 2,2017-042D,2026-07-18T01:19:12.752544,15.22458459,.00080664,97.4061,12.0206,306.5315,53.5178,0,U,42828,999,49243,.22765202E-3,.5202E-4,0
TECHNOSAT,2017-042E,2026-07-18T03:57:14.272992,15.05120470,.00171445,97.4322,355.6525,353.8283,6.2730,0,U,42829,999,49136,.9929248E-4,.1358E-4,0
FLYING LAPTOP,2017-042G,2026-07-18T07:30:09.294048,15.01324411,.00195417,97.4823,353.6768,22.5475,337.6604,0,U,42831,999,49112,.13679009E-3,.1709E-4,0
WNISAT 1R,2017-042L,2026-07-18T00:10:17.914656,15.01861016,.00104878,97.4818,354.0283,55.8516,304.3703,0,U,42835,999,49113,.29676833E-4,.33E-5,0
LEMUR-2-GREENBERG,2017-042N,2026-07-18T01:13:36.647040,15.32207983,.00073229,97.3835,19.5561,247.3182,112.7286,0,U,42837,999,49311,.31415728E-3,.9701E-4,0
LEMUR-2-FURIAUS,2017-042R,2026-07-18T01:34:57.806112,15.31188015,.0005737,97.3783,17.4560,317.1429,42.9364,0,U,42840,999,49293,.32216681E-3,.9635E-4,0
CORVUS BC2,2017-042X,2026-07-17T22:47:59.653536,15.06463717,.00131705,97.4093,359.1122,13.7355,346.4228,0,U,42846,999,49169,.82915868E-4,.1166E-4,0
CORVUS BC1,2017-042Y,2026-07-18T00:11:00.317184,15.06628310,.0011353,97.4125,0.0017,350.0028,10.0972,0,U,42847,999,49173,.11285909E-3,.1615E-4,0
VRSS-2,2017-060A,2026-07-18T07:54:00.991296,14.81240955,.00171526,97.6493,235.6518,3.6324,356.5010,0,U,42954,999,47306,.88847759E-4,.644E-5,0
MOHAMMED VI-A,2017-070A,2026-07-18T07:18:21.028320,14.77105334,.00012347,97.9546,271.2052,99.5866,260.5484,0,U,43005,999,46857,.76517781E-4,.49E-5,0
FENGYUN 3D,2017-072A,2026-07-18T05:26:24.694080,14.19744597,.00014074,99.0149,174.2134,8.2002,351.9197,0,U,43010,999,44939,.21463358E-4,-.1E-7,0
CZ-4C R/B,2017-072C,2026-07-18T07:37:55.012512,14.58810566,.01233088,98.5815,308.3392,56.3823,304.9071,0,U,43012,999,46117,.36802014E-4,.135E-5,0
NOAA 20 (JPSS-1),2017-073A,2026-07-18T07:08:00.521664,14.19516792,.0001504,98.7772,138.4844,121.0882,239.0442,0,U,43013,999,44888,.30686194E-4,.21E-6,0
MAKERSAT 0,2017-073D,2026-07-17T22:22:14.991744,15.33071683,.01055838,97.4572,81.7042,162.5490,197.9426,0,U,43016,999,47117,.29470365E-3,.11173E-3,0
RADFXSAT (FOX-1B),2017-073E,2026-07-18T02:16:53.145120,15.13085241,.01483451,97.4663,65.6800,221.3591,137.6333,0,U,43017,999,47006,.1627423E-3,.3698E-4,0
JILIN-1 04,2017-074A,2026-07-18T06:47:21.378048,15.43182433,.00052219,97.4879,309.7449,92.5264,267.6582,0,U,43022,999,47906,.17401899E-3,.7628E-4,0
JILIN-1 05,2017-074B,2026-07-18T07:11:12.473088,15.34313405,.00065585,97.4882,305.8871,116.1485,244.0433,0,U,43023,999,47877,.13087573E-3,.4268E-4,0
JILIN-1 06,2017-074C,2026-07-18T06:37:21.899424,15.34017226,.00082542,97.4807,302.8307,125.0017,235.2001,0,U,43024,999,47860,.1059628E-3,.3408E-4,0
IRIDIUM 116,2017-083C,2026-07-18T06:17:15.141984,14.34217003,.00025203,86.3985,309.0114,99.1907,260.9574,0,U,43072,999,44862,.37861376E-4,.126E-5,0
IRIDIUM 130,2017-083D,2026-07-18T07:12:03.305664,14.34218687,.0002325,86.3994,309.2742,100.4244,259.7214,0,U,43073,999,44857,.43631597E-4,.142E-5,0
LKW-2,2017-084A,2026-07-18T07:06:04.071744,15.26711363,.00037364,97.1172,237.6427,114.3331,245.8299,0,U,43080,999,47643,.69039674E-4,.1745E-4,0
SUPERVIEW-1 03,2018-002A,2026-07-18T07:03:22.056192,15.40282297,.00467072,97.3124,284.1049,70.2661,290.3615,0,U,43099,999,47315,.24324752E-3,.10094E-3,0
CARTOSAT-2F,2018-004A,2026-07-18T07:07:05.013984,15.19188667,.0002467,97.4767,258.6248,128.7889,231.3566,0,U,43111,999,47205,.13788447E-3,.2832E-4,0
LKW-3,2018-006A,2026-07-18T06:26:21.437952,15.35785026,.0003212,97.6645,1.0737,168.5053,191.6264,0,U,43146,999,47348,.15528264E-3,.5319E-4,0
ASNARO-2,2018-007A,2026-07-18T06:36:13.669344,15.22415560,.00017391,97.3976,205.7170,91.3495,268.7940,0,U,43152,999,47214,.19286853E-3,.4388E-4,0
